[{"OBJECT_NAME":"STARLINK-2538","OBJECT_ID":"2021-036AA","EPOCH":"2026-03-09T07:42:55.135872","MEAN_MOTION":15.30199988,"ECCENTRICITY":0.00012328,"INCLINATION":53.161,"RA_OF_ASC_NODE":89.897,"ARG_OF_PERICENTER":98.429,"MEAN_ANOMALY":261.685,"EPHEMERIS_TYPE":0,"CLASSIFICATION_TYPE":"U","NORAD_CAT_ID":48300,"ELEMENT_SET_NO":999,"REV_AT_EPOCH":26817,"BSTAR":-6.025602e-5,"MEAN_MOTION_DOT":-2.143e-5,"MEAN_MOTION_DDOT":0},{"OBJECT_NAME":"COSMOS 1782","OBJECT_ID":"1986-074A","EPOCH":"2026-03-09T22:40:22.374624","MEAN_MOTION":15.33314157,"ECCENTRICITY":0.00054418,"INCLINATION":82.5242,"RA_OF_ASC_NODE":238.1482,"ARG_OF_PERICENTER":197.7479,"MEAN_ANOMALY":162.3574,"EPHEMERIS_TYPE":0,"CLASSIFICATION_TYPE":"U","NORAD_CAT_ID":16986,"ELEMENT_SET_NO":999,"REV_AT_EPOCH":13134,"BSTAR":0.00042191031,"MEAN_MOTION_DOT":0.00013623,"MEAN_MOTION_DDOT":0}]
